EBBR 020650Z 15001KT CAVOK M03/M04 Q1024 NOSIG
EBLG 020650Z 14003KT CAVOK M02/M04 Q1024 NOSIG
EBCI 020650Z VRB02KT CAVOK M02/M04 Q1024 TEMPO 4000 BR
EBOS 020650Z 10002KT 8000 NSC M04/M04 Q1024 NOSIG
EBAW 020650Z 12001KT 7000 R11/0650N R29/1700U MIFG NSC M05/M05 Q1024 NOSIG
EBFS 020625Z AUTO 10003KT 9999 BKN220/// M02/M05 Q1023 BLU
EBCV 020633Z AUTO VRB02KT 6000 SCT100/// BKN110/// BKN130/// M04/M04 Q1024 WHT
LFQQ 020630Z AUTO 08004KT 4900 BR NSC M03/M03 Q1024 BECMG 9999 NSW
ELLX 020650Z 04009KT CAVOK M03/M05 Q1023 NOSIG
